Address,City,State,ZipCode
2505 CARR 841,GUAYNABO,PR,00969
35 CALLE JUAN C BORBON,GUAYNABO,PR,00969
9616 HARFORD RD,BALTIMORE,MD,21234
6918 HAMILTON AVE,CINCINNATI,OH,45231
925 SOUNDVIEW AVE,BRONX,NY,10473
3590 E TREMONT AVE,BRONX,NY,10465
704 CAMBRIDGE BLVD,O FALLON,IL,62269
6807 EVERGREEN WAY,EVERETT,WA,98203
1075 HIGHWAY 96 E,WHITE BEAR LAKE,MN,55127
101 SMITH CHURCH RD,ROANOKE RAPIDS,NC,27870
685 CALLE CESAR GONZALEZ,SAN JUAN,PR,00927
104 E EUCLID AVE,DES MOINES,IA,50313
6962 188TH ST,FRESH MEADOWS,NY,11365
2247 OCEAN HEIGHTS AVE,EGG HARBOR TWP,NJ,08234
370 WHITE PLAINS RD,EASTCHESTER,NY,10709
3053 SW MARTIN DOWNS BLVD,PALM CITY,FL,34990
940 CARR 123,UTUADO,PR,00641
1021 SUMMIT AVE,OCONOMOWOC,WI,53066
992 AVE HOSTOS,MAYAGUEZ,PR,00682
1125 RIDGE RD,WEBSTER,NY,14580
1903 CALUMET AVE,VALPARAISO,IN,46383
1046 YONKERS AVE,YONKERS,NY,10704
274 W CLINTON ST,GRAY,GA,31032
17705 CARR 2,AGUADILLA,PR,00603
5001 W AVENUE N,LANCASTER,CA,93551
201 MAIN ST,GLOUCESTER,MA,01930
5741 SILVER HILL RD,DISTRICT HEIGHTS,MD,20747
2979 AVE EMILIO FAGOT,PONCE,PR,00716
580 AVE SAN LUIS,ARECIBO,PR,00612
400 AVE LA SIERRA,SAN JUAN,PR,00926
2300 OTIS DR,ALAMEDA,CA,94501
215 PALM COAST PKWY NE,PALM COAST,FL,32137
3800 TIPPECANOE RD,YOUNGSTOWN,OH,44511
258 WALLACE RD,BEDFORD,NH,03110
11690 SW 72ND ST,MIAMI,FL,33173
4800 148TH ST,MIDLOTHIAN,IL,60445
1395 W D ST,NORTH WILKESBORO,NC,28659
CALLE PUBLICA AND CARR  2,VEGA BAJA,PR,28659
4501 GRAND AVE,DULUTH,MN,55807
1000 W FRANK AVE,LUFKIN,TX,75904
103 N SHADY ST,MOUNTAIN CITY,TN,37683
610 E VILLA MARIA RD,BRYAN,TX,77802
1717 MILTON AVE,JANESVILLE,WI,53545
11306 US 70 BUSINESS HWY W,CLAYTON,NC,52162
PR 181 AND PR 850,TRUJILLO ALTO,PR,00976
12704 GUY R BREWER BLVD,JAMAICA,NY,11434
7001 ROUTE 130,DELRAN,NJ,08075
7155 US HIGHWAY 431,ALBERTVILLE,AL,35950
12 CALLE TERESA JORNET,SAN JUAN,PR,00926
700 BRIDGEPORT AVE,SHELTON,CT,06484
35 ELM ST,CAMDEN,ME,04843
1349 E REPUBLIC RD,SPRINGFIELD,MO,65804
11745 ROUSBY HALL RD,LUSBY,MD,20657
870 E CERVANTES ST,PENSACOLA,FL,32501
3003 W YAMATO RD,BOCA RATON,FL,33434
100 AVE SAN PATRICIO,GUAYNABO,PR,00968
210 MOUNT HERMON RD,SCOTTS VALLEY,CA,95066
15601 HICKMAN RD,CLIVE,IA,50325
910 N RAND RD,LAKE ZURICH,IL,60047
3650 WHEELER RD,AUGUSTA,GA,30909
1808 UNIVERSITY AVE,OXFORD,MS,38655
643 YAUCO PLAZA II,YAUCO,PR,00698
1601 CHURCH ST,CONWAY,SC,29526
4210 CARR 693,DORADO,PR,00646
601 COLLEGE ST,CLINTON,NC,28328
1525 E KIMBERLY RD,DAVENPORT,IA,52807
11700 SW 104TH ST,MIAMI,FL,33186
7209 W LINCOLN HWY,FRANKFORT,IL,60423
10 MAIN ST,SIDNEY,NY,13838
102 N TIMBERLAND DR,LUFKIN,TX,75901
3077 54TH AVE S,ST PETERSBURG,FL,33712
8615 N PORT WASHINGTON RD,FOX POINT,WI,53217
3689 S HOUSTON LEVEE RD,COLLIERVILLE,TN,38017
4901 SPRING ST,MOUNT PLEASANT,WI,53406
186 MAIN ST,HUDSON,MA,01749
22898 SUSSEX HWY,SEAFORD,DE,19973
7501 OLIVE BLVD,UNIVERSITY CITY,MO,63130
691 CO OP CITY BOULEVARD,BRONX,NY,10475
365 MAIN ST,DAMARISCOTTA,ME,04543
514 FARRELL ST,BURLINGTON,VT,05401
301 W MAIN ST,INDEPENDENCE,KS,67301
9280 WICKER AVE,SAINT JOHN,IN,46373
3948 AIRPORT BLVD,MOBILE,AL,36608
8700 S KEDZIE AVE,EVERGREEN PARK,IL,60805
200 AVE FRAGOSO,CAROLINA,PR,00983
4 CENTRAL SQ,BRIDGEWATER,MA,02324
2822 AMBASSADOR CAFFERY PKWY,LAFAYETTE,LA,70506
1232 HIGHWAY 74 S,PEACHTREE CITY,GA,30269
2532 86TH ST,BROOKLYN,NY,11214
3800 MARKET ST,PASCAGOULA,MS,39567
2203 LANCASTER PIKE,READING,PA,19607
2050 FLORIDA ST,MANDEVILLE,LA,70448
1074 MINERAL SPRING AVE,NORTH PROVIDENCE,RI,02904
10 E KAMEHAMEHA AVE,KAHULUI,HI,96732
1115 AVE 65 INFANTERIA,SAN JUAN,PR,00924
1581 BELLA CRUZ DR,THE VILLAGES,FL,32159
4090 E GALBRAITH RD,DEER PARK,OH,45236
8225 E MAIN ST,RIDGELAND,SC,29936
9554 E LINCOLN HWY,FRANKFORT,IL,60423
16040 CROSSBAY BLVD,HOWARD BEACH,NY,11414
116 W DEPOT ST,ANGIER,NC,27501
398 ANDERSON FERRY RD,CINCINNATI,OH,45238
6071 TELEGRAPH RD,SAINT LOUIS,MO,63129
1770 DEER PARK AVE,DEER PARK,NY,11729
4010 SW 137TH AVE,MIAMI,FL,33175
1720 KINGS HWY,BROOKLYN,NY,11229
3524 N UNIVERSITY ST,PEORIA,IL,61604
PR 190 AND CAMPO RICO,CAROLINA,PR,00985
27440 US HIGHWAY 27,LEESBURG,FL,34748
101 TOWNE DR,FAYETTEVILLE,NY,13066
1130 AVE ASHFORD,CONDADO,PR,00907
6400 W NOB HILL BLVD,YAKIMA,WA,98908
111 W RIDGEWAY AVE,WATERLOO,IA,50701
43 TABB DR,MUNFORD,TN,38058
2600 S SMITHVILLE RD,DAYTON,OH,45420
3574 MONTGOMERY HWY,DOTHAN,AL,36303
1551 RICHMOND AVE,STATEN ISLAND,NY,10314
15111 WALLISVILLE RD,HOUSTON,TX,77049
1111 PENNSYLVANIA AVENUE,BROOKLYN,NY,11207
505 SALEM RD,CONWAY,AR,72034
844 W FREMONT ST,GALESBURG,IL,61401
8310 W DEER VALLEY RD,PEORIA,AZ,85382
5300 MONONA DR,MONONA,WI,53716
108 COTTAGE GROVE RD,MADISON,WI,53716
925 W FULTON ST,WAUPACA,WI,54981
1561 JOHN F KENNEDY BLVD,JERSEY CITY,NJ,07305
4030 ANNAS RETREAT,ST THOMAS,VI,00802
700 E REELFOOT AVE,UNION CITY,TN,38261
4600 KELL BLVD,WICHITA FALLS,TX,76310
400 COLONY BLVD,THE VILLAGES,FL,32162
8 HADDON AVE,HADDON TOWNSHIP,NJ,08108
1710 CROSBY AVE,BRONX,NY,10461
100 S CAROL MALONE BLVD,GRAYSON,KY,41143
2150 PONCE BYP,PONCE,PR,00716
3312 E 29TH ST,BRYAN,TX,77802
3805 80TH ST,KENOSHA,WI,53142
6036 MYRTLE AVE,RIDGEWOOD,NY,11385
11833 S WESTERN AVE,CHICAGO,IL,60643
7649 51 HARFORD ROAD,BALTIMORE,MD,21234
4039 DAYTON BLVD,RED BANK,TN,37415
400 W FAIRCHILD ST,DANVILLE,IL,61832
4521 OLEANDER DR,WILMINGTON,NC,28403
100 BOULEVARD DR,BAYAMON,PR,30474
462 5TH AVE,BROOKLYN,NY,11215
14025 NACOGDOCHES RD,SAN ANTONIO,TX,78247
80 14TH ST SW,ROCHESTER,MN,55902
390 E 162ND ST,SOUTH HOLLAND,IL,60473
STATE RD  149 AND STATED RD  5,JUANA DIAZ,PR,60473
20 BUFORD RD,NORTH CHESTERFIELD,VA,23235
3852 MAIN ST,STONE RIDGE,NY,12484
20002 WOLF RD,MOKENA,IL,60448
2110 SE OCEAN BLVD,STUART,FL,34996
17000 CARR 3,CANOVANAS,PR,00729
717 8TH AVE,MONROE,WI,53566
1802 GALVIN RD S,BELLEVUE,NE,68005
505 PARADISE RD,SWAMPSCOTT,MA,01907
2097 AVE HOSTOS,MAYAGUEZ,PR,00682
3145 W 147TH ST,POSEN,IL,60469
11 E 75TH ST,CHICAGO,IL,60619
90 01 SUTPHIN BOULEVARD,JAMAICA,NY,11435
572 MAIN ST,WAKEFIELD,MA,01880
6310 POPLAR AVE,MEMPHIS,TN,38119
1900 CARR  167 STE #1,TOA ALTA,PR,00953
1968 GRAND AVE,NORTH BALDWIN,NY,11510
8333 MARTIN WAY E,LACEY,WA,98516
190 N FLORISSANT RD,FERGUSON,MO,63135
5800 AVE JESUS T PINERO,CAYEY,PR,00736
3301 PANAMA LN,BAKERSFIELD,CA,93313
300 E F ST,IRON MOUNTAIN,MI,49801
465 MAIN ST,WESTBROOK,ME,04092
33 DEPOT RD,FALMOUTH,ME,04105
704 N MAIN ST,OREGON,WI,53575
8201 GREENLEAF AVE,WHITTIER,CA,90602
1510 REISTERSTOWN RD,PIKESVILLE,MD,21208
2214 MUSCATINE AVE,IOWA CITY,IA,52240
5950 STAGE RD,BARTLETT,TN,38134
610 BYPASS RD,BRANDENBURG,KY,40108
5695 DULUTH ST,GOLDEN VALLEY,MN,55422
2320 BOUDINOT AVE,CINCINNATI,OH,45238
700 N JACKSON ST,TULLAHOMA,TN,37388
3361 N LITCHFIELD RD,GOODYEAR,AZ,85395
815 BRASHEAR AVE,MORGAN CITY,LA,70380
1660 MAIN ST,BUDA,TX,78610
276 W LEE HWY,WARRENTON,VA,20186
2701 FAIRBURN RD,DOUGLASVILLE,GA,30135
880 HIGHWAY 85 S,FAYETTEVILLE,GA,30214
1933 W COURT ST,JANESVILLE,WI,53548
1925 ASHLEY RIVER RD,CHARLESTON,SC,29407
144 BANK ST,SEYMOUR,CT,06483
10500 SAINT CHARLES ROCK RD,SAINT ANN,MO,63074
9001 TWO NOTCH RD,COLUMBIA,SC,29223
396 E MAIN ST,MIDDLETOWN,DE,19709
729 W NORTHLAND AVE,APPLETON,WI,54914
11590 GRAVOIS RD,SAINT LOUIS,MO,63126
121 CALLE CRUZ ORTIZ STELLA S,HUMACAO,PR,00791
12661 OLIVE BLVD,CREVE COEUR,MO,63141
705 HIGHWAY 62 65 N,HARRISON,AR,72601
18039 DUMFRIES SHOPPING PLZ,DUMFRIES,VA,22026
2515 CRAWFORD RD,PHENIX CITY,AL,36867
11216 4TH AVE W,EVERETT,WA,98204
500 CARR 1,CAGUAS,PR,09593
2329 W CLAY ST,SAINT CHARLES,MO,63301
2970 SHASHO PL,WALDORF,MD,20603
1050 N MAIN ST,CHATHAM,IL,62629
3382 CASTRO VALLEY BLVD,CASTRO VALLEY,CA,94546
70 AVE RIO HONDO,BAYAMON,PR,00961
1005 W BEACON ST,PHILADELPHIA,MS,39350
2238 WESTBOROUGH BLVD,SOUTH SAN FRANCISCO,CA,94080
4420 NW FEDERAL HWY,JENSEN BEACH,FL,34957
4 OLD CLAIRTON RD,PLEASANT HILLS,PA,15236
701 WASHINGTON AVE,CHESTERTOWN,MD,21620
1489 AIRWAYS BLVD,MEMPHIS,TN,38114
395 N HIGHWAY 52,MONCKS CORNER,SC,29461
226 HIGH ST,ELLSWORTH,ME,04605
CARR #2 KM 129 7,AGUADILLA,PR,00690
6200 MERLE HAY RD,JOHNSTON,IA,50131
223 TOWNSEND AVE,BOOTHBAY HARBOR,ME,04538
8001 N MILWAUKEE AVE,NILES,IL,60714
1301 S 5TH ST,SAINT CHARLES,MO,63301
2200 TAMIAMI TRL N,NAPLES,FL,34103
4490 E 14TH ST,BROWNSVILLE,TX,78521
7794 S REDWOOD RD,WEST JORDAN,UT,84084
199 E CHURCH ST,JASPER,GA,30143
1880 N BELCHER RD,CLEARWATER,FL,33765
519 CEDAR HILL AVE,WYCKOFF,NJ,07481
8628 S COTTAGE GROVE AVE,CHICAGO,IL,60619
104 N MAIN ST,VERONA,WI,53593
729 ANDERSON AVE,CLIFFSIDE PARK,NJ,07010
7512 LEM TURNER RD,JACKSONVILLE,FL,32208
18461 E HAMPDEN AVE,AURORA,CO,80013
14 COLLEGE HWY,SOUTHAMPTON,MA,01073
5305 BUSINESS HIGHWAY 51 S,WESTON,WI,54476
115 LAKE BLVD E,REDDING,CA,96003
2385 NASHVILLE RD,BOWLING GREEN,KY,42101
1196 OLD COUNTRY RD,RIVERHEAD,NY,11901
2100 NE 139TH ST,VANCOUVER,WA,98686
25 AVE PONCE DE LEON,GUAYNABO,PR,00965
403 GEORGE CLAUSS BLVD,SEVERN,MD,21144
1230 NEPPERHAN AVE,YONKERS,NY,10703
719 BROOKWAY BLVD,BROOKHAVEN,MS,39601
1525 E 23RD ST,FREMONT,NE,68025
21914 MERRICK BLVD,LAURELTON,NY,11413
30957 MILL LN,DAPHNE,AL,36527
2407 BROAD ST,CAMDEN,SC,29020
7008 MARLBORO PIKE,FORESTVILLE,MD,20747
2750 BOSTON RD,BRONX,NY,10469
324 MASSACHUSETTS AVE,ARLINGTON,MA,02139
8450 CORAL WAY,MIAMI,FL,33155
4600 HABERSHAM ST,SAVANNAH,GA,31405
300 W SUGARLAND HWY,CLEWISTON,FL,33440
446 AVE JUAN ROSADO,ARECIBO,PR,00612
50 SOUTH AVE W,CRANFORD,NJ,07016
1302 CLARKSON CLAYTON CTR,ELLISVILLE,MO,63011
3300 RAMSEY ST,FAYETTEVILLE,NC,28301
72 CRESCENT AVE,WALDWICK,NJ,07463
2075 US HIGHWAY 1 S,SAINT AUGUSTINE,FL,32086
4120 HEMPSTEAD TPKE,BETHPAGE,NY,11714
5825 CAHILL AVE,INVER GROVE HEIGHTS,MN,55076
1801 N 14TH AVE,DODGE CITY,KS,67801
4700 GILBERT AVE,WESTERN SPRINGS,IL,60558
1619 FRANKLIN RD,BRENTWOOD,TN,37027
3020 MAYFIELD RD,CLEVELAND HEIGHTS,OH,44118
2933 VAUXHALL RD,VAUXHALL,NJ,07088
1251 S STATE ROAD 7,DAVIE,FL,33317
4142 PONTCHARTRAIN DR,SLIDELL,LA,70458
1448 N US HIGHWAY 1,TEQUESTA,FL,33469
1500 W JAMES ST,COLUMBUS,WI,53925
10639 S CICERO AVE,OAK LAWN,IL,60453
1210 KILDAIRE FARM RD,CARY,NC,27511
2401 S BRENTWOOD BLVD,BRENTWOOD,MO,63144
1138 W TENNYSON RD,HAYWARD,CA,94544
950 HIGHWAY 51 N,COVINGTON,TN,38019
45 EISENHOWER PKWY,ROSELAND,NJ,07068
2479 CHURCH RD,TOMS RIVER,NJ,08753
521 LONE OAK RD,PADUCAH,KY,42003
1700 WEST RD,TRENTON,MI,48183
6401 SISSONVILLE DR,CHARLESTON,WV,25312
1725 NORTHPORT DR,MADISON,WI,53704
603 WOODLAWN RD,LINCOLN,IL,62656
1391 BIG BEND RD,BALLWIN,MO,63021
11917 REISTERSTOWN RD,REISTERSTOWN,MD,21136
2275 N MAYFAIR RD,WAUWATOSA,WI,53226
3480 AVE MILITAR,ISABELA,PR,B1702
1963 CALLE LOIZA,SAN JUAN,PR,00911
CARR 3 KM 23 9,RIO GRANDE,PR,00745
5999 PEMBROKE RD,HOLLYWOOD,FL,33023
402 N MAIN ST,ELMIRA,NY,14901
216 WESTLAKE CTR,DALY CITY,CA,94015
2 WEST MAIN STREET,CLAXTON,GA,30417
2841 NICHOLS ST,SPENCERPORT,NY,14559
2505 W DIVISION ST,SAINT CLOUD,MN,56301
595 WASHINGTON ST,CANTON,MA,02021
750 NW 119TH ST,MIAMI,FL,33168
4296 ROUTE 130,WILLINGBORO,NJ,08046
1810 W TYLER AVE,HARLINGEN,TX,78550
3160 N HIGHWAY 67,FLORISSANT,MO,63033
5705 COTTAGE HILL RD,MOBILE,AL,36609
1461 ROBERT B CULLUM BLVD,DALLAS,TX,75210
205 W 27TH ST,SCOTTSBLUFF,NE,69361
8701 HIGHWAY 69 S,TUSCALOOSA,AL,35405
AVE HOSTOS ESQ CARR 831,BAYAMON,PR,00956
11950 VALLEY VIEW ST,GARDEN GROVE,CA,92845
121 DEPOT DR,WACONIA,MN,55387
350 HIGHWAY 62 E,MOUNTAIN HOME,AR,72653
3400 MILITARY HWY,PINEVILLE,LA,71360
1301 W BASE LINE ST,SAN BERNARDINO,CA,92411
2100 E RIDGE RD,IRONDEQUOIT,NY,14622
700 W PARK AVE,GREENWOOD,MS,38930
2706 AVE MARUCA,PONCE,PR,00728
1 CALLE MARGINAL,GUAYAMA,PR,00784
2204 NEVA RD,ANTIGO,WI,54409
1001 AVE PEDRO ALBIZU CAMPOS,SALINAS,PR,00751
11200 PROVIDENCE RD W,CHARLOTTE,NC,28277
500 EGG HARBOR RD,SEWELL,NJ,08080
405 S HILL ST,GRIFFIN,GA,30224
590 MADISON RD,CULPEPER,VA,22701
2920 CARTER HILL RD,MONTGOMERY,AL,36106
4740 W 95TH ST,OAK LAWN,IL,60453
2271 BALFOUR RD,BRENTWOOD,CA,94513
612 4TH ST NW,FARIBAULT,MN,55021
15900 NW 27TH AVE,OPA LOCKA,FL,33054
6600 W STATE ST,WAUWATOSA,WI,53213
6400 HAVEN AVE,RANCHO CUCAMONGA,CA,91737
8500 NEW FALLS RD,LEVITTOWN,PA,19054
2030 BLVD LUIS A FERRE,PONCE,PR,19054
4049 BRAMBLETON AVE,ROANOKE,VA,24018
405 BROADWAY,EVERETT,MA,02148
100 BROADWAY,ELMWOOD PARK,NJ,07407
6325 ROSEMEAD BLVD,SAN GABRIEL,CA,91775
540 MOUNTAIN VIEW RD,RAPID CITY,SD,57702
3593 CLEVELAND AVE,FORT MYERS,FL,33901
4600 COCONUT CREEK PKWY,COCONUT CREEK,FL,33063
150 CARR 857,CAROLINA,PR,28457
9301 HIGHWAY 119,ALABASTER,AL,35007
W62N190 WASHINGTON AVE,CEDARBURG,WI,53012
10640 ROCKAWAY BEACH BLVD,ROCKAWAY PARK,NY,11694
1700 LARKIN AVE,ELGIN,IL,60123
9 SUSIE WILSON RD,ESSEX JUNCTION,VT,05452
14095 RICHMOND HWY,WOODBRIDGE,VA,22191
6798 N LINCOLN AVE,LINCOLNWOOD,IL,60712
3531 THOMASVILLE RD,TALLAHASSEE,FL,32309
600 WASHINGTON BLVD S,LAUREL,MD,20707
1554 E 55TH ST,CHICAGO,IL,60615
1290 CHESTNUT ST,ORANGEBURG,SC,29115
700 GALLATIN AVE,NASHVILLE,TN,37206
3480 JEROME AVE,BRONX,NY,10467
351 N EDWARDS BLVD,LAKE GENEVA,WI,53147
9043 DARROW RD,TWINSBURG,OH,44087
2350 BOONVILLE RD,BRYAN,TX,77808
12 E EMPIRE AVE,SPOKANE,WA,99207
132 GRANITE ST,QUINCY,MA,02169
6101 W 70TH ST,SHREVEPORT,LA,71129
1901 PRAIRIE AVE,BELOIT,WI,53511
1131 E SUPERIOR ST,DULUTH,MN,55802
2102 MONTAUK HWY,BRIDGEHAMPTON,NY,11932
987 UNION AVE,MEMPHIS,TN,38104
75 MAIN ST,DANBURY,CT,06810
130 S EUFAULA AVE,EUFAULA,AL,36027
12802 E 96TH ST N,OWASSO,OK,74055
717 N BROAD ST,EDENTON,NC,27932
19203 STONE OAK PKWY,SAN ANTONIO,TX,78258
400 AVE MUNOZ RIVERA,SAN JUAN,PR,00901
333 EL CAMINO REAL,SAN BRUNO,CA,94010
200 E ROOSEVELT RD,VILLA PARK,IL,60181
16 PECK FARM RD,WINTHROP,ME,04364
665 LONG POND RD,ROCHESTER,NY,14612
123 ANDERSON STREET,HACKENSACK,NJ,07601
15255 SW 137TH AVE,MIAMI,FL,33177
90 WEST AVE,SARATOGA SPRINGS,NY,12866
2119 CONCORD PIKE,WILMINGTON,DE,19803
7650 W SAND LAKE RD,ORLANDO,FL,32819
1110 LARPENTEUR AVE W,SAINT PAUL,MN,55113
3655 S DIXIE HWY,MIAMI,FL,33133
1415 HEMPSTEAD TPKE,ELMONT,NY,11003
1419 NEWKIRK AVE,BROOKLYN,NY,11226
331 N PACIFIC COAST HWY,EL SEGUNDO,CA,90245
170 N MAIN ST,RANDOLPH,MA,02368
2205 N CALHOUN RD,BROOKFIELD,WI,53005
135 S LIBERTY DR,STONY POINT,NY,10980
1209 N BRIDGE ST,ELKIN,NC,28621
699 WALLACE RD NW,SALEM,OR,97304
3326 W MERCURY BLVD,HAMPTON,VA,23666
550 CARRETERRA  #167,BAYAMON,PR,00957
13680 SW 88TH ST,MIAMI,FL,33186
1050 US HIGHWAY 60 E,REPUBLIC,MO,65738
PLAZA ENCANTADA URB  ENCANTADA,TRUJILLO ALTO,PR,00976
4600 WESTBANK EXPY,MARRERO,LA,70072
3600 FERN VALLEY RD,LOUISVILLE,KY,40219
275 MONROE TPKE,MONROE,CT,06468
1306 N BECKLEY AVE,DALLAS,TX,75203
1906 W INNES ST,SALISBURY,NC,28144
5731 BIRD RD,MIAMI,FL,33155
990 BAXTER AVE,LOUISVILLE,KY,40204
1111 HIGHLAND AVE,SELMA,AL,36703
920 US HIGHWAY 431,BOAZ,AL,35957
5780 TERRY RD,BYRAM,MS,39272
15575 E 127TH ST,LEMONT,IL,60439
1401 W PIERCE ST,CARLSBAD,NM,88220
11236 E LAKEWOOD BLVD,HOLLAND,MI,49424
1999 GRAND AVE,WEST DES MOINES,IA,50265
2135 CARR 2,BAYAMON,PR,00961
2130 RICHEY ST,PASADENA,TX,77502
2000 CELANESE RD,ROCK HILL,SC,29732
7339 GRAVOIS AVE,SAINT LOUIS,MO,63116
327 CHESTNUT ST,UNION,NJ,07083
2901 FORT CAMPBELL BLVD,HOPKINSVILLE,KY,42240
2795 LEWISVILLE CLEMMONS RD,CLEMMONS,NC,27012
3150 S SENECA ST,WICHITA,KS,67217
1235 W STATE ST,HURRICANE,UT,84737
1350 GARRETT ST,ENUMCLAW,WA,98022
2411 S DAY ST,BRENHAM,TX,77833
22 AVE WINSTON CHURCHILL,SAN JUAN,PR,00926
8 W 63RD ST,WESTMONT,IL,60559
240 AVENUE A,TURNERS FALLS,MA,01376
6350 N MACARTHUR BLVD,WARR ACRES,OK,73122
5564 BROADWAY,BRONX,NY,10463
314 ROLKIN RD,CHARLOTTESVILLE,VA,22911
27112 132ND AVE SE,KENT,WA,98042
5190 POPLAR AVE,MEMPHIS,TN,38117
77 MALLETT DR,TOPSHAM,ME,04086
195 N CANAL BLVD,THIBODAUX,LA,70301
407 W GLEN PARK AVE,GRIFFITH,IN,46319
44840 MONTEREY AVE,PALM DESERT,CA,92260
2280 W MAIN ST,MEDFORD,OR,97501
2203 TEXAS PKWY,MISSOURI CITY,TX,77489
12490 CENTRAL AVE,CHINO,CA,91710
5508 BRIDGETOWN RD,CINCINNATI,OH,45248
1633 W 95TH ST,CHICAGO,IL,60643
1400 E SUMNER ST,HARTFORD,WI,53027
6205 FM 2770,KYLE,TX,78640
939 N WISCONSIN ST,ELKHORN,WI,53121
101 W US HIGHWAY 20,MICHIGAN CITY,IN,46360
9810 APOLLO DR,LARGO,MD,20774
3501 FOREST DR,COLUMBIA,SC,29204
5703 S SAGINAW RD,GRAND BLANC,MI,48507
4822 CATON FARM RD,PLAINFIELD,IL,60586
2907 HIGHWAY 160 W,FORT MILL,SC,29708
5890 N BELT W,BELLEVILLE,IL,62226
384 OIL WELL RD,JACKSON,TN,38305
2016 S HOUSTON LEVEE RD,COLLIERVILLE,TN,38017
3800 POPLAR LEVEL RD,LOUISVILLE,KY,40213
365 NEW SHACKLE ISLAND RD,HENDERSONVILLE,TN,37075
430 SPENCERPORT RD,ROCHESTER,NY,14606
2995 E FLAMINGO RD,LAS VEGAS,NV,89121
25401 75TH ST,SALEM,WI,53168
159 E GRAND AVE,HOT SPRINGS,AR,71901
412 E MAIN ST,LOUISA,VA,23093
1477 MAIN ST,DUNEDIN,FL,34698
15442 N 99TH AVE,SUN CITY,AZ,85351
1309 RICHMOND RD,WILLIAMSBURG,VA,23185
918 MAIN ST,SOUTH FARMINGDALE,NY,11735
4497 FAR HILLS AVE,KETTERING,OH,45429
100 N WATER ST,BURNET,TX,78611
222 E BROADWAY,COLUMBIA,MO,65203
950 E COMMERCE ST,HERNANDO,MS,38632
3216 E CLEAR LAKE AVE,SPRINGFIELD,IL,62702
1330 N WOODLAWN ST,WICHITA,KS,67208
13880 TOWNE PLACE BLVD,ORLANDO,FL,32837
215 ANDREWS HWY,MIDLAND,TX,79701
355 N EOLA RD,AURORA,IL,60502
1107 E DIXIE DR,ASHEBORO,NC,27203
1000 E NORTHWEST HWY,ARLINGTON HEIGHTS,IL,60004
16 ROUTE 59,NYACK,NY,10960
498 N WEBER RD,ROMEOVILLE,IL,60446
7620 S US HIGHWAY 1,PORT SAINT LUCIE,FL,34952
1221 N LAKE ST,AURORA,IL,60506
121 E EL CAMINO REAL,MOUNTAIN VIEW,CA,94040
7685 S RAINBOW BLVD,LAS VEGAS,NV,89139
1241 W FOOTHILL BLVD,UPLAND,CA,91786
2500 GRANT ST,GARY,IN,46404
10707 W PEORIA AVE,SUN CITY,AZ,85351
640 EDWARDSVILLE RD,TROY,IL,62294
11 PEARL ST,BRAINTREE,MA,02184
4202 S CARRIER PKWY,GRAND PRAIRIE,TX,75052
URB ROLLING HLS,CAROLINA,PR,28379
5709 W AMARILLO BLVD,AMARILLO,TX,79106
9820 OLD HAMMOND HWY,BATON ROUGE,LA,70816
6495 TROY PIKE,HUBER HEIGHTS,OH,45424
1010 OLD BARNWELL RD,WEST COLUMBIA,SC,29170
1109 PALM COAST PKWY SW,PALM COAST,FL,32137
3470 RIVER RAPIDS DR NW,COON RAPIDS,MN,55448
11121 SIERRA AVE,FONTANA,CA,92337
2001 MADISON AVE,GRANITE CITY,IL,62040
28 MAIN AVE,LOGAN,WV,25601
5504 BALBOA AVE,SAN DIEGO,CA,92111
1645 COLUMBIA TPKE,CASTLETON,NY,12033
7422 TOWN SQUARE AVE,O FALLON,MO,63368
1228 BATTLEFIELD PKWY,FT OGLETHORPE,GA,30742
9100 TELEGRAPH RD,TAYLOR,MI,48180
300 STATE HIGHWAY 13,WISCONSIN DELLS,WI,54514
393 FRONT ST,HEMPSTEAD,NY,11550
7601 HIGHWAY 70 S,BELLEVUE,TN,37221
7576 SKYWAY,PARADISE,CA,95969
2600 VINE ST,HAYS,KS,67601
110 LAKE SHORE DR W,ASHLAND,WI,54806
8975 N CHESTNUT AVE,FRESNO,CA,93720
4520 WESTERN CENTER BLVD,HALTOM CITY,TX,76137
220 FOOTHILLS MALL DR,MARYVILLE,TN,37801
4440 HIGHWAY 411,MADISONVILLE,TN,37354
15390 NEW HALLS FERRY RD,FLORISSANT,MO,63031
101 CARR 1,CAGUAS,PR,00725
6795 CALDER AVE,BEAUMONT,TX,77706
20505 SHERMAN WAY,CANOGA PARK,CA,91306
975 S BABCOCK ST,MELBOURNE,FL,32901
4100 WILLIAMS BLVD,KENNER,LA,70065
2300 PECAN BLVD,MCALLEN,TX,78501
2985 S CHICAGO AVE,SOUTH MILWAUKEE,WI,53172
22401 LAKE SHORE BLVD,EUCLID,OH,44123
7100 SILVER LAKE BLVD,ALEXANDRIA,VA,22315
10134 RIVER RD,POTOMAC,MD,20854
860 EAST AVE,CHICO,CA,95926
4625 SUMMER AVE,MEMPHIS,TN,38122
501 PLAINFIELD RD,WILLOWBROOK,IL,60527
429 AVE BARBOSA,SAN JUAN,PR,00923
6300 HIXSON PIKE,CHATTANOOGA,TN,37343
2008 LAURENS RD,GREENVILLE,SC,29607
12576 RILEY ST,HOLLAND,MI,49424
2615 BURNSED BLVD,THE VILLAGES,FL,32163
3142 S SERVICE DR,RED WING,MN,55066
9621 BELAIR RD,BALTIMORE,MD,21236
3003 OLD ALABAMA RD,ALPHARETTA,GA,30022
115 FIELDS ST,MOORESVILLE,IN,46158
5000 BRANDT PIKE,HUBER HEIGHTS,OH,45424
4415 STATE ROAD 16,LA CROSSE,WI,54601
3200 N OAK STREET EXT,VALDOSTA,GA,31605
16741 CANAL RD,CLINTON TWP,MI,48038
8595 W WARM SPRINGS RD,LAS VEGAS,NV,89113
2505 JOHN HAWKINS PKWY,HOOVER,AL,35244
1230 N WEBB RD,GRAND ISLAND,NE,68803
2100 BRANDON ST SW,HUNTSVILLE,AL,35801
1250 E CHAPMAN AVE,FULLERTON,CA,92831
2014 S BROAD ST,PHILADELPHIA,PA,19145
2517 KALISTE SALOOM RD,LAFAYETTE,LA,70508
30 W RIDGE PIKE,LIMERICK,PA,19468
46965 CEDAR LAKE PLZ,STERLING,VA,20164
1780 ZUMBEHL RD,SAINT CHARLES,MO,63303
80 CARR 308,CABO ROJO,PR,00623
915 WILDWOOD RD,WHITE BEAR LAKE,MN,55115
2840 W AVENUE L,LANCASTER,CA,93536
600 US ROUTE 1,SCARBOROUGH,ME,04074
8571 WATSON RD,WEBSTER GROVES,MO,63119
2570 BARATARIA BLVD,MARRERO,LA,70072
2018 AUGUSTA ST,GREENVILLE,SC,29605
1000 BROAD ST,SUMTER,SC,29150
5122 TUSCARAWAS ST W,CANTON,OH,44708
6505 N ILLINOIS ST,FAIRVIEW HEIGHTS,IL,62208
9978 KENNERLY RD,SAINT LOUIS,MO,63128
7606 S 7TH ST,PHOENIX,AZ,85042
1659 PENFIELD RD,ROCHESTER,NY,14625
147 N COMRIE AVE,JOHNSTOWN,NY,12095
1601 S CONGRESS AVE,BOYNTON BEACH,FL,33426
1138 SABBATH HOME RD SW,HOLDEN BEACH,NC,28462
34909 EMERALD COAST PKWY,DESTIN,FL,32541
1 PALMER AVE,CORINTH,NY,12822
2519 KETTERING ST,JANESVILLE,WI,53546
703 NEWBRIDGE RD,NORTH BELLMORE,NY,11710
15711 SW 152ND ST,MIAMI,FL,33187
4296 S 76TH ST,GREENFIELD,WI,53220
12659 S RIDGELAND AVE,PALOS HEIGHTS,IL,60463
14 SOUNDVIEW MARKET PL,PORT WASHINGTON,NY,11050
6975 YORK AVE S,EDINA,MN,55435
3913 W OLD SHAKOPEE RD,BLOOMINGTON,MN,55437
4895 PALM AVE,HIALEAH,FL,33012
3770 N WOODLAWN BLVD,WICHITA,KS,67220
77 105 BLOOMFIELD AVE,BLOOMFIELD,NJ,07003
5403 N BEND RD,CINCINNATI,OH,45247
541 W 235TH ST,BRONX,NY,10463
3855 S MOORLAND RD,NEW BERLIN,WI,53151
4120 AUSTELL RD,AUSTELL,GA,30106
2104 MCCALLIE AVE,CHATTANOOGA,TN,37404
12506 HIGHWAY 73,GEISMAR,LA,70734
333 PHILLIPS BLVD,SAUK CITY,WI,53583
1001 BOWLES AVE,FENTON,MO,63026
7113 CERMAK RD,BERWYN,IL,60402
9430 BLUE RIDGE BLVD,KANSAS CITY,MO,64138
5428 LYNDALE AVE S,MINNEAPOLIS,MN,55419
11119 HULL STREET RD,MIDLOTHIAN,VA,23112
5450 PLANK RD,BATON ROUGE,LA,70805
5555 W 79TH ST,BURBANK,IL,60459
10870 OVERSEAS HWY,MARATHON,FL,33050
6201 ELYSIAN FIELDS AVE,NEW ORLEANS,LA,70122
1311 ROUTE 37 W,TOMS RIVER,NJ,08755
421 9TH AVE SE,WATERTOWN,SD,57201
3488 ROBINHOOD RD,WINSTON SALEM,NC,27106
1012 N CENTRAL AVE,MARSHFIELD,WI,54449
10555 W OVERLAND RD,BOISE,ID,83709
600 GAP NEWPORT PIKE,AVONDALE,PA,19311
9325 POPLAR AVE,GERMANTOWN,TN,38138
692 SW PRIMA VISTA BLVD,PORT SAINT LUCIE,FL,34983
901 MAIN ST,ASBURY PARK,NJ,07712
3580 STATE ROUTE 66,NEPTUNE,NJ,07753
6730 BLUFFTON RD,FORT WAYNE,IN,46809
6551 FOREST HILL DR,FOREST HILL,TX,76140
859 E MAIN ST,LANCASTER,OH,43130
600 J CLYDE MORRIS BLVD,NEWPORT NEWS,VA,23601
200 LAFOLLETTE STA S,FLOYDS KNOBS,IN,47119
320 MAIN ST,PRESQUE ISLE,ME,04769
475 ROUTE 17M,MONROE,NY,10950
1870 E HISTORIC HIGHWAY 66,GALLUP,NM,87301
4201 DALE RD,MODESTO,CA,95356
4899 NW BLITCHTON RD,OCALA,FL,34482
600 S HIGHWAY 27,SOMERSET,KY,42501
4423 ASHEVILLE HWY,KNOXVILLE,TN,37914
835 PARK AVE,BLOOMFIELD,CT,06002
115 E STATE ROAD 434,LONGWOOD,FL,32750
4300 SE 29TH ST,DEL CITY,OK,73115
41 PARK PLZ,MECHANICVILLE,NY,12118
1317 S MAIN ST,WEATHERFORD,TX,76086
104 E PARKWOOD AVE,FRIENDSWOOD,TX,77546
3000 VISTA BLVD,SPARKS,NV,89436
600 STONE COVE LN,CARY,NC,27519
735 CABARRUS AVE W,CONCORD,NC,28027
2475 US HIGHWAY 1,MIMS,FL,32754
3700 FALLS RD,BALTIMORE,MD,21211
2805 N ROOSEVELT BLVD,KEY WEST,FL,33040
12105 PACIFIC AVE S,TACOMA,WA,98444
1660 W LOCUST ST,DAVENPORT,IA,52804
505 COLLEGE AVE,VINCENNES,IN,47591
9209 MANSFIELD RD,SHREVEPORT,LA,71118
2104 E NC HIGHWAY 54,DURHAM,NC,27713
1620 S BROADWAY AVE,TYLER,TX,75701
1520 N SCHOOL ST,HONOLULU,HI,96817
231 PROSPECT ST,SOUTH RIVER,NJ,08882
900 AVE SAN JOSE,QUEBRADILLAS,PR,00678
2420 E COLONIAL DR,ORLANDO,FL,32803
12240 N MAY AVE,OKLAHOMA CITY,OK,73120
7235 W 10TH ST,INDIANAPOLIS,IN,46214
451 FM 548,FORNEY,TX,75126
12006 MANCHESTER RD,DES PERES,MO,63131
1600 N NOVA RD,HOLLY HILL,FL,32117
1204 THE BLVD,RAYNE,LA,70578
1620 S GORDON ST,ALVIN,TX,77511
401 PARADISE RD,MODESTO,CA,95351
2304 E LINCOLNWAY,CHEYENNE,WY,82001
101 W UNIVERSITY DR,DENTON,TX,76201
375 W CONTINENTAL RD,GREEN VALLEY,AZ,85622
4520 BALFOUR RD,BRENTWOOD,CA,94513
5 LAKE ST,STAMFORD,NY,12167
1260 LIBERTY RD,ELDERSBURG,MD,21784
3822 S KINGSHIGHWAY BLVD,SAINT LOUIS,MO,63109
1300 E HALLANDALE BEACH BLVD,HALLANDALE BEACH,FL,33009
6317 LIMESTONE RD,HOCKESSIN,DE,19707
17 W GOLF RD,DES PLAINES,IL,60016
3555 GREENWOOD RD,SHREVEPORT,LA,71109
340 W WASHINGTON ST,BRAINERD,MN,56401
100 NW PARK ST,OKEECHOBEE,FL,34972
49 WASHINGTON AVE,NORTH HAVEN,CT,06473
12290 S PULASKI RD,ALSIP,IL,60803
105 E 6TH ST,CARROLL,IA,51401
602 EUCLID AVE,SAN DIEGO,CA,92114
1316 BATTLEFIELD BLVD N,CHESAPEAKE,VA,23320
118 W CONSTANCE RD,SUFFOLK,VA,23434
710 N WALES RD,NORTH WALES,PA,53183
1790 W GOVERNMENT ST,BRANDON,MS,39042
62 W GRAY RD,GRAY,ME,04039
680 E BURLEIGH BLVD,TAVARES,FL,32778
3825 DURAND AVE,RACINE,WI,53405
1051 OAK ST,NORTH AURORA,IL,60542
350 CAMBRIDGE RD,WOBURN,MA,01801
2935 GARDEN ST,TITUSVILLE,FL,32796
28100 S TAMIAMI TRL,BONITA SPRINGS,FL,34134
429 N STATE OF FRANKLIN RD,JOHNSON CITY,TN,37604
1404 SUPERIOR ST,LINCOLN,NE,68521
16803 LORAIN AVE,CLEVELAND,OH,44111
820 N DEKALB ST,SHELBY,NC,28150
100 W HARFORD ST,MILFORD,PA,18337
14440 WARWICK BLVD,NEWPORT NEWS,VA,23608
1008 CENTER POINT PL,FRANKLIN,TN,37064
3605 COLLEGE ST,BEAUMONT,TX,77701
33670 US HIGHWAY 19 N,PALM HARBOR,FL,34684
34402 N SCOTTSDALE RD,SCOTTSDALE,AZ,85266
1530 LAFAYETTE AVE,SAINT LOUIS,MO,63104
35279 VINE ST,WILLOWICK,OH,44095
3801 S OLD HIGHWAY 94,SAINT PETERS,MO,63304
1291 TASHA DR,SHAKOPEE,MN,55379
10660 EASTEX FWY,HOUSTON,TX,77093
138 SW MILITARY DR,SAN ANTONIO,TX,78221
250 CARR 153,SANTA ISABEL,PR,25084
10697 ULMERTON RD,LARGO,FL,33771
221 CALLE GAUTIER BENITEZ,CAGUAS,PR,00725
12311 N NC HIGHWAY 150,WINSTON SALEM,NC,27127
4766 E QUEEN CREEK RD,GILBERT,AZ,85297
4617 E MAIN ST,WHITEHALL,OH,43213
101 8TH ST SE,ALTOONA,IA,50009
810 W 21ST ST,NORFOLK,VA,23517
2455 EASTERN AVE,PLYMOUTH,WI,53073
2656 N WAUWATOSA AVE,WAUWATOSA,WI,53213
100 W 3RD ST,DONALSONVILLE,GA,39845
1705 US HIGHWAY 1,VERO BEACH,FL,32960
1305 N CASALOMA DR,GRAND CHUTE,WI,54913
600 COUNTY ROAD 10 NE,BLAINE,MN,55434
2598 BAYSHORE BLVD,DUNEDIN,FL,34698
201 HILLSBORO ST,OXFORD,NC,27565
1200 GREENBRIER PKWY,CHESAPEAKE,VA,23320
1100 E 63RD ST,KANSAS CITY,MO,64110
107 HIGH ST,DANVERS,MA,01923
4075 CHEROKEE ST NW,KENNESAW,GA,30144
15295 COLLIER BLVD,NAPLES,FL,34119
1008 AVE AMERICO MIRANDA,SAN JUAN,PR,00921
1204 1ST AVE E,NEWTON,IA,50208
1033 SHOOTING PARK RD,PERU,IL,61354
13307 NEW HAMPSHIRE AVE,SILVER SPRING,MD,20904
189 W NORTHWEST HWY,BARRINGTON,IL,60010
3441 KILDAIRE FARM RD,CARY,NC,27518
1595 OPOSSUMTOWN PIKE,FREDERICK,MD,21702
2099 FORD PKWY,SAINT PAUL,MN,55116
4220 MANATEE AVE W,BRADENTON,FL,34205
588 S JEFFERSON AVE,LEBANON,MO,65536
5006 BOONSBORO RD,LYNCHBURG,VA,24503
955 SE BASELINE ST,HILLSBORO,OR,97123
869 2ND AVE,TROY,NY,12182
5301 SUMMERVILLE RD,PHENIX CITY,AL,36867
758 ARTHUR KILL RD,STATEN ISLAND,NY,10312
2331 S ATLANTIC BLVD,MONTEREY PARK,CA,90040
140 WATER ST,RED BANK,NJ,07701
7901 RITCHIE HWY,GLEN BURNIE,MD,21061
89 HENRY ST,FREEPORT,NY,11520
6707 PITTSFORD PALMYRA RD,FAIRPORT,NY,14450
2801 S 4TH AVE,YUMA,AZ,85364
5601 SARATOGA BLVD,CORPUS CHRISTI,TX,78414
1810 30TH AVE,KENOSHA,WI,53144
91 CALEF HWY,LEE,NH,03861
8310 ABRAMS RD,DALLAS,TX,75243
4575 ALTAMA AVE,BRUNSWICK,GA,31520
4985 WELLINGTON RD,GAINESVILLE,VA,20155
9110 LIBERTY RD,RANDALLSTOWN,MD,21133
3046 ROUTE 38,MOUNT LAUREL,NJ,08054
920 W GLORIA SWITCH RD,LAFAYETTE,LA,70507
627 E 12TH ST,WASHINGTON,NC,27889
2300 E LOHMAN AVE,LAS CRUCES,NM,88001
8400 171ST ST,TINLEY PARK,IL,60487
901 W TOUHY AVE,PARK RIDGE,IL,60068
1490 N ROCHESTER RD,ROCHESTER,MI,48307
3500 SE MARICAMP RD,OCALA,FL,34471
22 N CONSTITUTION DR,AURORA,IL,60506
100 CHALUPSKY AVE SE,NEW PRAGUE,MN,56071
1849 W SUNSET BLVD,ST GEORGE,UT,84770
5317 WILLIAMS DR,GEORGETOWN,TX,78633
1295 E MAIN ST,ROCK HILL,SC,29730
840 OAKDALE RD,MODESTO,CA,95355
2815 N ASHLEY ST,VALDOSTA,GA,31602
1915 WISCONSIN AVE,GRAFTON,WI,53024
20 W KINGS HWY,MOUNT EPHRAIM,NJ,08059
615 CARR 152,NARANJITO,PR,00719
321 BATTLEFIELD BLVD S,CHESAPEAKE,VA,23322
6201 SALTSBURG RD,PITTSBURGH,PA,15235
3715 MECHANICSVILLE TPKE,RICHMOND,VA,23223
8714 E BRAINERD RD,CHATTANOOGA,TN,37421
869 E AVALON ST,KUNA,ID,83634
1905 SE 164TH AVE,VANCOUVER,WA,98683
16675 OAK PARK AVE,TINLEY PARK,IL,60477
930 ELK GROVE TOWN CTR,ELK GROVE VILLAGE,IL,60007
3320 CHINO HILLS PKWY,CHINO HILLS,CA,91709
1850 LOGAN AVE,WATERLOO,IA,50703
203 W FERGUSON RD,MOUNT PLEASANT,TX,75455
1708 W NORTHWEST BLVD,SPOKANE,WA,99205
4203 CALLE MARGINAL,FAJARDO,PR,00738
CARR  PR #2 KM  93 7,CAMUY,PR,00627
3245 AGENCY ST,BURLINGTON,IA,52601
3296 VILLAGE DR,FAYETTEVILLE,NC,28304
5040 BEATTIES FORD RD,CHARLOTTE,NC,28216
4855 COMMERCIAL DR,NEW HARTFORD,NY,13413
1312 CHAIN BRIDGE ROAD,MCLEAN,VA,22101
68 S MAIN ST,HAVERHILL,MA,01835
350 CARR 830,BAYAMON,PR,00956
2301 S ONEIDA ST,ASHWAUBENON,WI,54304
395 DANFORTH AVE,JERSEY CITY,NJ,07305
1060 E JOHNSON ST,FOND DU LAC,WI,54935
757 GALLIVAN BLVD,DORCHESTER,MA,02122
807 S MAIN ST,DEFOREST,WI,53532
2940 W MAIN ST,DOTHAN,AL,36305
151 E MAIN ST,DOVER FOXCROFT,ME,04426
1005 BAY RIDGE AVE,ANNAPOLIS,MD,21403
20 ARNOT ST,LODI,NJ,07644
3489 SEMINOLE TRL,CHARLOTTESVILLE,VA,22911
COMMANDANTE AND CAMPO RICO,CAROLINA,PR,00982
2148 MORRIS AVE,UNION,NJ,07083
1050 E US HIGHWAY 377,GRANBURY,TX,76048
9100 W BELOIT RD,MILWAUKEE,WI,53227
476 W UNION AVE,BOUND BROOK,NJ,08805
9450 SW WILSONVILLE RD,WILSONVILLE,OR,97070
23925 NEWHALL RANCH RD,SANTA CLARITA,CA,91355
7780 N WICKHAM RD,MELBOURNE,FL,32940
3221 BAYSHORE RD,NORTH CAPE MAY,NJ,08204
3800 ELM ST,SAINT CHARLES,MO,63301
4361 HIGHWAY 24,ANDERSON,SC,29626
901 N ANKENY BLVD,ANKENY,IA,50023
2351 DAWSON RD,ALBANY,GA,31707
1138 MAIN AVE,CLIFTON,NJ,07011
35800 US HWY 27 N,HAINES CITY,FL,33844
2101 MORGAN AVE,CORPUS CHRISTI,TX,78405
655 WARREN AVE,EAST PROVIDENCE,RI,02914
711 MAIN ST,DENNISPORT,MA,02639
780 WAUKEGAN RD,DEERFIELD,IL,60015
23110 ALDINE WESTFIELD RD,SPRING,TX,77373
9005 N NAVARRO ST,VICTORIA,TX,77904
3590 VIRGINIA AVE,COLLINSVILLE,VA,24078
7535 HOLABIRD AVE,BALTIMORE,MD,21222
2172 PENFIELD RD,PENFIELD,NY,14526
34503 YUCAIPA BLVD,YUCAIPA,CA,92399
400 W SAM RIDLEY PKWY,SMYRNA,TN,37167
1200 W FAYETTE AVE,EFFINGHAM,IL,62401
3475 E 17TH ST,AMMON,ID,83406
8989 W DODGE RD,OMAHA,NE,68114
2020 COURT ST,PEKIN,IL,61554
1965 DONEGAL DR,WOODBURY,MN,55125
340 N MAIN ST,KERNERSVILLE,NC,27284
12 MAIN ST,EPPING,NH,03042
431 HAMILTON ST,GENEVA,NY,14456
3950 N DEAN RD,ORLANDO,FL,32817
7600 DEBARR RD,ANCHORAGE,AK,99504
602 W LIBERTY ST,WAUCONDA,IL,60084
2651 KIRKWOOD HWY,NEWARK,DE,19711
65 WESTERN AVE,HAMPDEN,ME,04444
2532 N ILLINOIS ST,SWANSEA,IL,62226
208 PARK AVE,RUTHERFORD,NJ,07070
3144 N HIGHLAND AVE,JACKSON,TN,38305
5900 CALLE REAL,GOLETA,CA,93117
5809 FOOTHILL BLVD,OAKLAND,CA,94605
1762 MARS HILL RD NW,ACWORTH,GA,30101
7921 SW HIGHWAY 200,OCALA,FL,34476
1751 ROCK PRAIRIE RD,COLLEGE STATION,TX,77845
5340 SOUTEL DR,JACKSONVILLE,FL,32219
1502 INDUSTRIAL RD,EMPORIA,KS,66801
12295 BISCAYNE BLVD,NORTH MIAMI,FL,33181
2402 VILLAGE GREEN PL,CHAMPAIGN,IL,61822
8651 HIGHWAY 377 S,BENBROOK,TX,76126
313 W ESPERANZA BLVD,GREEN VALLEY,AZ,85614
238 MCMECHEN ST,BALTIMORE,MD,21217
1127 6TH AVE SE,DECATUR,AL,35601
2444 DALLAS HWY SW,MARIETTA,GA,30064
441 N KIRKWOOD RD,KIRKWOOD,MO,63122
1991 E APPLE AVE,MUSKEGON,MI,49442
359 STATE ROUTE 23,SUSSEX,NJ,07461
5415 S BROADWAY AVE,TYLER,TX,75703
128 E BRANDON BLVD,BRANDON,FL,33511
4971 S MEMORIAL DR,TULSA,OK,74145
1000 AVE RAMON LUIS RIVERA,BAYAMON,PR,74145
2719 ANDERSON AVE,MANHATTAN,KS,66502
1212 SUMMIT AVE,JERSEY CITY,NJ,07087
11801 S AVENUE O,CHICAGO,IL,60617
915 S US HIGHWAY 1,VERO BEACH,FL,32962
2405 PASS RD,BILOXI,MS,39531
240 CENTRAL AVE,ORANGE,NJ,07018
901 MAIN AVE,DE PERE,WI,54115
82 ELMORE RD,CROSSVILLE,TN,38555
1001 S 78TH ST,TAMPA,FL,33619
39527 HIGHWAY 42,PRAIRIEVILLE,LA,70769
22456 BARTON RD,GRAND TERRACE,CA,92313
499 SALT LICK RD,SAINT PETERS,MO,63376
8210 WINTON RD,CINCINNATI,OH,45231
4814 N SHERIDAN RD,PEORIA,IL,61614
2035 CANDLER RD,DECATUR,GA,30032
103 INDIAN ROCKS RD S,BELLEAIR BLUFFS,FL,33770
185 CENTRE ST,MALDEN,MA,02148
201 HANBURY RD E,CHESAPEAKE,VA,23322
116 N MILITARY AVE,GREEN BAY,WI,54303
1542 WAYNE AVE,DAYTON,OH,45410
112 BROWNS WAY RD,MIDLOTHIAN,VA,23114
2605 BARNA AVE,TITUSVILLE,FL,32780
2040 GLEN ELLYN RD,GLENDALE HTS,IL,60139
1122 VAUGHN RD,WOOD RIVER,IL,62095
1150 E SIBLEY BLVD,DOLTON,IL,60419
1115 W WASHINGTON ST,MARQUETTE,MI,49855
2560 QUARRY LAKE DR,BALTIMORE,MD,21209
9320 LACKLAND RD,OVERLAND,MO,63114
184 LINCOLN ST,HINGHAM,MA,02043
385 NORTHLAND BLVD,CINCINNATI,OH,45240
8300 NORTHERN LIGHTS DR,LINCOLN,NE,68505
17051 BEAR VALLEY RD,HESPERIA,CA,92345
1300 HAZELWOOD DR,SMYRNA,TN,37167
4218 LINDELL BLVD,SAINT LOUIS,MO,63108
7634 BELLAIRE BLVD,HOUSTON,TX,77036
575 LISBON ST,LISBON FALLS,ME,04252
383 WASHINGTON AVE,HILLSDALE,NJ,07642
355 MARKET SQUARE DR,PRINCE FREDERICK,MD,20678
6608 GEORGE WASHINGTON MEM HWY,YORKTOWN,VA,23692
100 12TH AVE NE,NORMAN,OK,73071
4302 DITMARS BLVD,ASTORIA,NY,11105
13023 S LA GRANGE RD,PALOS PARK,IL,60464
2920 BERLIN TPKE,NEWINGTON,CT,06111
7620 JEFFERSON HWY,BATON ROUGE,LA,70809
9495 MEXICO RD,O FALLON,MO,63366
325 LAFAYETTE AVE,HAWTHORNE,NJ,07506
655 ELM PL,HIGHLAND PARK,IL,60035
13613 US HIGHWAY 1,SEBASTIAN,FL,32958
275 BROADWAY,AMITYVILLE,NY,11701
4330 HIGHWAY 22,MANDEVILLE,LA,70471
5000 E STATE HIGHWAY 100,PALM COAST,FL,32164
9801 BROOK RD,GLEN ALLEN,VA,23059
13155 W CENTER RD,OMAHA,NE,68144
786 SAINT GEORGES AVE,RAHWAY,NJ,07065
6001 W CHEYENNE AVE,LAS VEGAS,NV,89108
981 N SHAWANO ST,NEW LONDON,WI,54961
590 RUSS AVE,WAYNESVILLE,NC,28786
603 W CHURCH ST,LEXINGTON,TN,38351
2300 GRAND CENTRAL AVE,VIENNA,WV,26105
1616 BLACK RIVER BLVD N,ROME,NY,13440
9310 SW 56TH ST,MIAMI,FL,33165
2460 STATE ROUTE 52,PINE BUSH,NY,12566
5201 BELT LINE RD,DALLAS,TX,75254
2995 YGNACIO VALLEY RD,WALNUT CREEK,CA,94598
27 BROADWAY ST,COLCHESTER,CT,B0M
4025 W NORTHERN PKWY,BALTIMORE,MD,21215
1450 IMMOKALEE DR,IMMOKALEE,FL,34142
1460 STATE ROUTE 23,WAYNE,NJ,07470
4875 E ELLIOT RD,PHOENIX,AZ,85044
1920 ALOMA AVE,WINTER PARK,FL,32792
3320 BELL ST,AMARILLO,TX,79106
3888 VINEVILLE AVE,MACON,GA,31204
2109 WILMA RUDOLPH BLVD,CLARKSVILLE,TN,37040
104 ASHEVILLE HWY,GREENEVILLE,TN,37743
11215 NEW HAMPSHIRE AVE,SILVER SPRING,MD,20904
1602 N DIXIE AVE,ELIZABETHTOWN,KY,42701
3233 S 27TH ST,MILWAUKEE,WI,53215
593 MARKET ST,ELMWOOD PARK,NJ,07407
6458 LINTON BLVD,DELRAY BEACH,FL,33484
1740 CENTER AVE,JANESVILLE,WI,53546
17522 BEACH BLVD,HUNTINGTON BEACH,CA,92647
6S235 STEEPLE RUN DR,NAPERVILLE,IL,60540
303 DEVEREAUX DR,NATCHEZ,MS,39120
4210 E STATE ROAD 64,BRADENTON,FL,34208
100 E SIOUX AVE,PIERRE,SD,57501
99 WESTFIELD ST,WEST SPRINGFIELD,MA,01089
2500 S KOKE MILL RD,SPRINGFIELD,IL,62711
611 SAN RAMON VALLEY BLVD,DANVILLE,CA,94526
1042 NORD AVE,CHICO,CA,95926
18040 R PLZ,OMAHA,NE,68135
9580 KENWOOD RD,BLUE ASH,OH,45242
4100 BOSQUE BLVD,WACO,TX,76710
1021 3RD ST,NEW MARTINSVILLE,WV,26155
8633 W CHARLESTON BLVD,LAS VEGAS,NV,89117
10800 W CAPITOL DR,WAUWATOSA,WI,53222
131 S MAIN ST,HIAWASSEE,GA,30546
5600 W TOUHY AVE,NILES,IL,60714
540 BUSHY HILL RD,SIMSBURY,CT,06070
5798 MCCLELLAN HWY,BRANCHLAND,WV,25506
2100 BROOKS ST,MISSOULA,MT,59801
2915 N CENTER ST,HICKORY,NC,28601
ARROYO TOWN CENTER #800 CARRE,ARROYO,PR,93420
1012 CLEVELAND BLVD,CALDWELL,ID,83605
1210 WILMINGTON AVE,NEW CASTLE,PA,16105
47 HOPATCHUNG RD,HOPATCONG,NJ,07843
2811 N MAIN ST,ANDERSON,SC,29621
1029 N 14TH ST,SHEBOYGAN,WI,53081
2509 WHITE TAIL DR,CEDAR FALLS,IA,50613
2781 LAVISTA RD,DECATUR,GA,30033
1224 S TAMIAMI TRL,SARASOTA,FL,34239
3300 CENTER ST,DEER PARK,TX,77536
9801 BROWNSBORO RD,LOUISVILLE,KY,40241
7299 LAGUNA BLVD,ELK GROVE,CA,95758
529 TALCOTTVILLE RD,VERNON ROCKVILLE,CT,06066
2220 S INTERSTATE 35,ROUND ROCK,TX,78681
4540 LACEY BLVD SE,LACEY,WA,98503
9150 DEVLIN RD,BRISTOW,VA,20136
2710 N UNIVERSITY DR,HOLLYWOOD,FL,33024
10427 BIG BEND RD,RIVERVIEW,FL,33578
100 W JUDGE PEREZ DR,CHALMETTE,LA,70043
1665 MINERAL SPRING AVE,NORTH PROVIDENCE,RI,02904
1750 GENESEE ST,UTICA,NY,13502
12881 PERKINS RD,BATON ROUGE,LA,70810
1900 CAMERON ST,RALEIGH,NC,27605
15911 PINES BLVD,PEMBROKE PINES,FL,33027
400 JUNCOS PLZ,JUNCOS,PR,00777
5435 E DUPONT RD,FORT WAYNE,IN,46825
11509 ABERCORN ST,SAVANNAH,GA,31419
501 CAPERTON DR,RICHMOND,KY,40475
11650 E 86TH ST N,OWASSO,OK,74055
12509 DORSETT RD,MARYLAND HEIGHTS,MO,63043
10420 FOREST HILL BLVD,WELLINGTON,FL,33414
6101 ANDREWS RD,MENTOR ON THE LAKE,OH,44060
955 N STATE ST,JACKSON,MS,39202
3400 MOUNTAIN RD,PASADENA,MD,21122
8265 CHAMPIONS GATE BLVD,CHAMPIONS GATE,FL,33896
316 W ASPEN AVE,FRUITA,CO,81521
7814 LINDEN BLVD,HOWARD BEACH,NY,11414
4515 CAMP BOWIE BLVD,FORT WORTH,TX,76107
1955 SULLIVAN TRL,EASTON,PA,18040
9865 GLADES RD,BOCA RATON,FL,33434
17970 N TAMIAMI TRL,NORTH FORT MYERS,FL,33903
409 RAMAPO VALLEY RD,OAKLAND,NJ,07436
5913 CARSON ST,LAKEWOOD,CA,90713
31 CAVALRY DR,NEW CITY,NY,10956
484 S TELEGRAPH RD,MONROE,MI,48161
1920 DOUGLAS AVE,RACINE,WI,53402
6028 S NC 16 HWY,MAIDEN,NC,28650
1100 2ND ST S,SARTELL,MN,56377
7525 SHERIDAN RD,KENOSHA,WI,53143
10 AVE FENWAL,SAN GERMAN,PR,53143
1654 N PEBBLE CREEK PKWY,GOODYEAR,AZ,85395
900 MAIN AVE,MOORHEAD,MN,56560
2979 LINDEN ST,BETHLEHEM,PA,18017
6865 W TROPICANA AVE,LAS VEGAS,NV,89103
2320 23RD ST,COLUMBUS,NE,68601
5815 GULL RD,KALAMAZOO,MI,49048
943 WESTERN AVE,MANCHESTER,ME,04351
9449 S HOWELL AVE,OAK CREEK,WI,53154
7776 COX LN,WEST CHESTER,OH,45069
806 ODD FELLOWS RD,CROWLEY,LA,70526
770 S HIGHWAY 160,PAHRUMP,NV,89048
